[{"OBJECT_NAME":"STARLINK-34051","OBJECT_ID":"2025-102A","EPOCH":"2026-03-09T11:58:54.552864","MEAN_MOTION":14.98336627,"ECCENTRICITY":0.00035108,"INCLINATION":70.0013,"RA_OF_ASC_NODE":114.9428,"ARG_OF_PERICENTER":262.1194,"MEAN_ANOMALY":97.9567,"EPHEMERIS_TYPE":0,"CLASSIFICATION_TYPE":"U","NORAD_CAT_ID":64022,"ELEMENT_SET_NO":999,"REV_AT_EPOCH":4592,"BSTAR":-9.226319e-6,"MEAN_MOTION_DOT":-2.03e-6,"MEAN_MOTION_DDOT":0},{"OBJECT_NAME":"CZ-6A DEB","OBJECT_ID":"2024-140GW","EPOCH":"2026-03-09T13:40:41.444832","MEAN_MOTION":14.63521789,"ECCENTRICITY":0.016262,"INCLINATION":89.029,"RA_OF_ASC_NODE":283.5875,"ARG_OF_PERICENTER":212.7771,"MEAN_ANOMALY":146.3276,"EPHEMERIS_TYPE":0,"CLASSIFICATION_TYPE":"U","NORAD_CAT_ID":60819,"ELEMENT_SET_NO":999,"REV_AT_EPOCH":8379,"BSTAR":0.00016069,"MEAN_MOTION_DOT":1.03e-5,"MEAN_MOTION_DDOT":0}]
